STARLINK-2022           
1 47643U 21012Z   24013.14347033 -.00004621  00000+0 -29165-3 0  9995
2 47643  53.0558 342.5640 0001544  86.7192 273.3974 15.06385792161192
